[{"OBJECT_NAME":"FENGYUN 3F","OBJECT_ID":"2023-111A","EPOCH":"2026-03-09T23:16:34.953600","MEAN_MOTION":14.19919562,"ECCENTRICITY":0.00012463,"INCLINATION":98.6928,"RA_OF_ASC_NODE":140.7948,"ARG_OF_PERICENTER":79.4466,"MEAN_ANOMALY":280.6851,"EPHEMERIS_TYPE":0,"CLASSIFICATION_TYPE":"U","NORAD_CAT_ID":57490,"ELEMENT_SET_NO":999,"REV_AT_EPOCH":13478,"BSTAR":6.0252393e-5,"MEAN_MOTION_DOT":8.4e-7,"MEAN_MOTION_DDOT":0},{"OBJECT_NAME":"CZ-6A DEB","OBJECT_ID":"2024-140QE","EPOCH":"2026-03-09T01:29:15.319104","MEAN_MOTION":14.2361245,"ECCENTRICITY":0.00873107,"INCLINATION":89.1144,"RA_OF_ASC_NODE":293.6904,"ARG_OF_PERICENTER":200.5173,"MEAN_ANOMALY":159.2506,"EPHEMERIS_TYPE":0,"CLASSIFICATION_TYPE":"U","NORAD_CAT_ID":61136,"ELEMENT_SET_NO":999,"REV_AT_EPOCH":8006,"BSTAR":0.0014618825,"MEAN_MOTION_DOT":3.477e-5,"MEAN_MOTION_DDOT":0}]
